CUTE-1 (CO-55)          
1 27844U 03031E   26133.47488448  .00000193  00000+0  10262-3 0  9990
2 27844  98.6747 142.4698 0008333 288.8739  71.1536 14.24313421186737
CUBESAT XI-IV (CO-57)   
1 27848U 03031J   26132.95398353  .00000166  00000+0  92089-4 0  9999
2 27848  98.6779 141.6963 0008465 311.5693  48.4759 14.23601310186360
CUBESAT XI-V            
1 28895U 05043F   26133.40904681  .00000792  00000+0  13289-3 0  9994
2 28895  98.2946 288.3105 0013121 319.7744  40.2490 14.72536322 96630
CUTE-1.7+APD II (CO-65) 
1 32785U 08021C   26133.37566157  .00002866  00000+0  18483-3 0  9999
2 32785  97.8259 114.0841 0010058 139.0492 221.1493 15.09108129979944
CANX-2                  
1 32790U 08021H   26133.39384734  .00001913  00000+0  13790-3 0  9994
2 32790  97.8625 112.5078 0011232 152.0350 208.1482 15.05361431979570
SEEDS II (CO-66)        
1 32791U 08021J   26133.45517375  .00010734  00000+0  35503-3 0  9998
2 32791  97.7522 129.7307 0004990  83.3636 276.8172 15.31527838981976
SWISSCUBE               
1 35932U 09051B   26133.20649609  .00000594  00000+0  12720-3 0  9990
2 35932  98.4058  40.4838 0006178 333.2483  26.8399 14.62410948884043
BEESAT-1                
1 35933U 09051C   26133.26632221  .00000494  00000+0  10908-3 0  9994
2 35933  98.3987  40.2528 0005036 351.2715   8.8397 14.61660725884089
ITUPSAT1                
1 35935U 09051E   26133.15818821  .00000453  00000+0  10367-3 0  9990
2 35935  98.4072  39.3718 0007440 358.3068   1.8105 14.60385418883628
TISAT 1                 
1 36799U 10035E   26133.34624792  .00012278  00000+0  42092-3 0  9994
2 36799  98.0691  76.8483 0003488  52.2159 307.9396 15.30347916862374
AEROCUBE 4.5A           
1 38767U 12048K   26133.33698991  .00111747  00000+0  64338-3 0  9996
2 38767  64.6290 152.4858 0019069 216.8593 143.1251 15.77888669367134
STRAND-1                
1 39090U 13009E   26133.24487063  .00000173  00000+0  72597-4 0  9997
2 39090  98.3916 314.3410 0008178 343.6635  16.4288 14.37141852692045
BRITE-AUSTRIA           
1 39091U 13009F   26133.45170535  .00000103  00000+0  49498-4 0  9991
2 39091  98.3988 313.7488 0009899 350.9654   9.1353 14.36527680692066
NEE-01 PEGASO           
1 39151U 13018B   26133.36122948  .00001488  00000+0  14717-3 0  9995
2 39151  98.1178 276.3748 0011281 279.5915  80.4029 14.93483981705503
POPACS 2                
1 39269U 13055E   26133.40866874  .00008941  00000+0  15353-3 0  9992
2 39269  80.9929 183.9814 0419194 305.6784  50.6077 14.90413241658039
POPACS 3                
1 39270U 13055F   26133.33857603  .00010771  00000+0  25723-3 0  9992
2 39270  81.0001 266.9447 0554900 175.9665 184.6305 14.55254304633487
ZACUBE-1 (TSHEPISOSAT)  
1 39417U 13066B   26133.34344936  .00002785  00000+0  21971-3 0  9995
2 39417  97.8118  95.4912 0041807  10.4134 349.7946 15.00910563675508
WNISAT-1                
1 39423U 13066H   26133.34898352  .00000285  00000+0  61030-4 0  9992
2 39423  97.7159 284.9867 0162655 342.1290  17.4230 14.58018061661656
TRITON-1                
1 39427U 13066M   26133.44791708  .00001892  00000+0  23162-3 0  9992
2 39427  97.8265  44.0457 0090118 348.6824  11.2360 14.81549549668948
GOMX-1                  
1 39430U 13066Q   26133.52428353  .00001116  00000+0  17435-3 0  9993
2 39430  97.6515 336.1730 0128478 188.1862 171.7250 14.69318487664821
CUBEBUG-2 (LO-74)       
1 39440U 13066AA  26133.36077527  .00001527  00000+0  14601-3 0  9997
2 39440  97.8891  82.2050 0058865 141.5245 219.0194 14.93493081671793
NEE-02 KRYSAOR          
1 39441U 13066AB  26133.27443470  .00000951  00000+0  10977-3 0  9994
2 39441  97.8882  72.7460 0066091 182.8707 177.2139 14.86483884671015
FUNCUBE-1 (AO-73)       
1 39444U 13066AE  26133.51445031  .00004881  00000+0  30844-3 0  9990
2 39444  97.8259 104.2531 0035304 324.5150  35.3730 15.09027653674430
UWE-3                   
1 39446U 13066AG  26133.38821264  .00002066  00000+0  18157-3 0  9999
2 39446  97.8680  89.2422 0050799  75.9697 284.7165 14.96721930672376
BRITE-CA1 (TORONTO)     
1 40020U 14033L   26133.31773297  .00000428  00000+0  72027-4 0  9996
2 40020  97.9688 262.8994 0079262  29.4987 331.0659 14.72627770637084
DUCHIFAT-1              
1 40021U 14033M   26133.08859225  .00047059  00000+0  61912-3 0  9998
2 40021  98.0508 187.5109 0005818 186.4444 173.6736 15.58323990650271
NANOSATC-BR1            
1 40024U 14033Q   26133.03929226  .00010985  00000+0  37739-3 0  9993
2 40024  98.0756 162.3424 0001930 326.7264  33.3853 15.30316701648608
QB50P1                  
1 40025U 14033R   26133.47676531  .00005113  00000+0  25722-3 0  9996
2 40025  98.0980 142.2038 0008319 357.1376   2.9807 15.17704544647764
QB50P2                  
1 40032U 14033Y   26133.42297403  .00003611  00000+0  19903-3 0  9991
2 40032  98.0752 128.1540 0005806 300.8251  59.2407 15.14697843647407
PERSEUS-M2              
1 40037U 14033AD  26133.53731029  .00001024  00000+0  98092-4 0  9998
2 40037  97.9936  83.3795 0013188  58.4683 301.7823 14.95396907645607
